{
  "type": "FeatureCollection",
  "features": [
    {
      "type": "Feature",
      "properties": {
        "norad_id": 2807,
        "name": "OPS 7218 (TRANSIT 16)",
        "group": "nnss",
        "lat": 73.14129933703342,
        "lon": -5.138061046705013,
        "alt_km": 1047.394396973351,
        "timestamp": "2025-12-19T18:58:41.856473+00:00",
        "meta_object_name": "OPS 7218 (TRANSIT 16)",
        "meta_object_id": "1967-048A",
        "meta_epoch": "2025-12-19T06:13:36.695136",
        "meta_mean_motion": 13.50723591,
        "meta_eccentricity": 0.00221335,
        "meta_inclination": 89.6731,
        "meta_ra_of_asc_node": 353.8,
        "meta_arg_of_pericenter": 96.6947,
        "meta_mean_anomaly": 274.5627,
        "meta_ephemeris_type": 0,
        "meta_classification_type": "U",
        "meta_norad_cat_id": 2807,
        "meta_element_set_no": 999,
        "meta_rev_at_epoch": 88364,
        "meta_bstar": 0.00016003604,
        "meta_mean_motion_dot": 1.14e-06,
        "meta_mean_motion_ddot": 0,
        "tle_line1": "1 02807U 67048A   25353.25945249  .00000114  00000+0  16004-3 0  9999",
        "tle_line2": "2 02807  89.6731 353.8000 0022133  96.6947 274.5627 13.50723591883642"
      },
      "geometry": {
        "type": "Point",
        "coordinates": [
          -5.138061046705013,
          73.14129933703342
        ]
      }
    },
    {
      "type": "Feature",
      "properties": {
        "norad_id": 2965,
        "name": "OPS 4947 (TRANSIT 17)",
        "group": "nnss",
        "lat": -27.052249796484524,
        "lon": -155.7182712416415,
        "alt_km": 1030.8701869052766,
        "timestamp": "2025-12-19T18:58:41.856495+00:00",
        "meta_object_name": "OPS 4947 (TRANSIT 17)",
        "meta_object_id": "1967-092A",
        "meta_epoch": "2025-12-19T04:05:22.989408",
        "meta_mean_motion": 13.5345517,
        "meta_eccentricity": 0.00466173,
        "meta_inclination": 89.249,
        "meta_ra_of_asc_node": 23.9452,
        "meta_arg_of_pericenter": 215.3411,
        "meta_mean_anomaly": 210.8168,
        "meta_ephemeris_type": 0,
        "meta_classification_type": "U",
        "meta_norad_cat_id": 2965,
        "meta_element_set_no": 999,
        "meta_rev_at_epoch": 87184,
        "meta_bstar": 0.00019991409,
        "meta_mean_motion_dot": 1.46e-06,
        "meta_mean_motion_ddot": 0,
        "tle_line1": "1 02965U 67092A   25353.17040497  .00000146  00000+0  19991-3 0  9998",
        "tle_line2": "2 02965  89.2490  23.9452 0046617 215.3411 210.8168 13.53455170871840"
      },
      "geometry": {
        "type": "Point",
        "coordinates": [
          -155.7182712416415,
          -27.052249796484524
        ]
      }
    },
    {
      "type": "Feature",
      "properties": {
        "norad_id": 3133,
        "name": "OPS 7034 (TRANSIT 18)",
        "group": "nnss",
        "lat": -51.45808521804743,
        "lon": -86.3055874068145,
        "alt_km": 1125.5114150947238,
        "timestamp": "2025-12-19T18:58:41.856508+00:00",
        "meta_object_name": "OPS 7034 (TRANSIT 18)",
        "meta_object_id": "1968-012A",
        "meta_epoch": "2025-12-19T05:49:59.436192",
        "meta_mean_motion": 13.51567168,
        "meta_eccentricity": 0.00744825,
        "meta_inclination": 90.0283,
        "meta_ra_of_asc_node": 273.6573,
        "meta_arg_of_pericenter": 150.3733,
        "meta_mean_anomaly": 14.5612,
        "meta_ephemeris_type": 0,
        "meta_classification_type": "U",
        "meta_norad_cat_id": 3133,
        "meta_element_set_no": 999,
        "meta_rev_at_epoch": 57006,
        "meta_bstar": 0.00015105072,
        "meta_mean_motion_dot": 1.1e-06,
        "meta_mean_motion_ddot": 0,
        "tle_line1": "1 03133U 68012A   25353.24304903  .00000110  00000+0  15105-3 0  9996",
        "tle_line2": "2 03133  90.0283 273.6573 0074482 150.3733  14.5612 13.51567168570064"
      },
      "geometry": {
        "type": "Point",
        "coordinates": [
          -86.3055874068145,
          -51.45808521804743
        ]
      }
    },
    {
      "type": "Feature",
      "properties": {
        "norad_id": 4507,
        "name": "NNSS 19 (TRANSIT 19)",
        "group": "nnss",
        "lat": -86.56177530266032,
        "lon": -125.37639043084103,
        "alt_km": 948.1113062579161,
        "timestamp": "2025-12-19T18:58:41.856520+00:00",
        "meta_object_name": "NNSS 19 (TRANSIT 19)",
        "meta_object_id": "1970-067A",
        "meta_epoch": "2025-12-19T01:37:32.174400",
        "meta_mean_motion": 13.51316318,
        "meta_eccentricity": 0.01702732,
        "meta_inclination": 90.0051,
        "meta_ra_of_asc_node": 234.5383,
        "meta_arg_of_pericenter": 274.8647,
        "meta_mean_anomaly": 83.3083,
        "meta_ephemeris_type": 0,
        "meta_classification_type": "U",
        "meta_norad_cat_id": 4507,
        "meta_element_set_no": 999,
        "meta_rev_at_epoch": 72307,
        "meta_bstar": 0.00012869775,
        "meta_mean_motion_dot": 9.9e-07,
        "meta_mean_motion_ddot": 0,
        "tle_line1": "1 04507U 70067A   25353.06773350  .00000099  00000+0  12870-3 0  9993",
        "tle_line2": "2 04507  90.0051 234.5383 0170273 274.8647  83.3083 13.51316318723075"
      },
      "geometry": {
        "type": "Point",
        "coordinates": [
          -125.37639043084103,
          -86.56177530266032
        ]
      }
    },
    {
      "type": "Feature",
      "properties": {
        "norad_id": 6909,
        "name": "NNSS 20 (TRANSIT 20)",
        "group": "nnss",
        "lat": 42.063313373725265,
        "lon": 74.8186634966938,
        "alt_km": 970.1401221692258,
        "timestamp": "2025-12-19T18:58:41.856532+00:00",
        "meta_object_name": "NNSS 20 (TRANSIT 20)",
        "meta_object_id": "1973-081A",
        "meta_epoch": "2025-12-19T04:18:57.343104",
        "meta_mean_motion": 13.71437396,
        "meta_eccentricity": 0.01564672,
        "meta_inclination": 89.8562,
        "meta_ra_of_asc_node": 254.9577,
        "meta_arg_of_pericenter": 59.2456,
        "meta_mean_anomaly": 302.4009,
        "meta_ephemeris_type": 0,
        "meta_classification_type": "U",
        "meta_norad_cat_id": 6909,
        "meta_element_set_no": 999,
        "meta_rev_at_epoch": 80449,
        "meta_bstar": 0.00022822694,
        "meta_mean_motion_dot": 2.35e-06,
        "meta_mean_motion_ddot": 0,
        "tle_line1": "1 06909U 73081A   25353.17983036  .00000235  00000+0  22823-3 0  9997",
        "tle_line2": "2 06909  89.8562 254.9577 0156467  59.2456 302.4009 13.71437396804490"
      },
      "geometry": {
        "type": "Point",
        "coordinates": [
          74.8186634966938,
          42.063313373725265
        ]
      }
    },
    {
      "type": "Feature",
      "properties": {
        "norad_id": 10457,
        "name": "TRANSAT",
        "group": "nnss",
        "lat": -38.62587452906757,
        "lon": -101.37116261614526,
        "alt_km": 1069.9367503651374,
        "timestamp": "2025-12-19T18:58:41.856543+00:00",
        "meta_object_name": "TRANSAT",
        "meta_object_id": "1977-106A",
        "meta_epoch": "2025-12-19T05:42:04.199040",
        "meta_mean_motion": 13.48944505,
        "meta_eccentricity": 0.00260175,
        "meta_inclination": 89.648,
        "meta_ra_of_asc_node": 78.367,
        "meta_arg_of_pericenter": 170.8394,
        "meta_mean_anomaly": 242.5458,
        "meta_ephemeris_type": 0,
        "meta_classification_type": "U",
        "meta_norad_cat_id": 10457,
        "meta_element_set_no": 999,
        "meta_rev_at_epoch": 36831,
        "meta_bstar": 9.3687484e-05,
        "meta_mean_motion_dot": 6.9e-07,
        "meta_mean_motion_ddot": 0,
        "tle_line1": "1 10457U 77106A   25353.23754860  .00000069  00000+0  93687-4 0  9992",
        "tle_line2": "2 10457  89.6480  78.3670 0026017 170.8394 242.5458 13.48944505368317"
      },
      "geometry": {
        "type": "Point",
        "coordinates": [
          -101.37116261614526,
          -38.62587452906757
        ]
      }
    },
    {
      "type": "Feature",
      "properties": {
        "norad_id": 12458,
        "name": "NOVA 1",
        "group": "nnss",
        "lat": -9.536530551752694,
        "lon": -88.68963157088237,
        "alt_km": 1178.9526996712584,
        "timestamp": "2025-12-19T18:58:41.856554+00:00",
        "meta_object_name": "NOVA 1",
        "meta_object_id": "1981-044A",
        "meta_epoch": "2025-12-19T05:27:45.320832",
        "meta_mean_motion": 13.23278978,
        "meta_eccentricity": 0.00158869,
        "meta_inclination": 89.8528,
        "meta_ra_of_asc_node": 91.2936,
        "meta_arg_of_pericenter": 88.0892,
        "meta_mean_anomaly": 299.9525,
        "meta_ephemeris_type": 0,
        "meta_classification_type": "U",
        "meta_norad_cat_id": 12458,
        "meta_element_set_no": 999,
        "meta_rev_at_epoch": 15272,
        "meta_bstar": 0.00010592238,
        "meta_mean_motion_dot": 5.4e-07,
        "meta_mean_motion_ddot": 0,
        "tle_line1": "1 12458U 81044A   25353.22760788  .00000054  00000+0  10592-3 0  9993",
        "tle_line2": "2 12458  89.8528  91.2936 0015886  88.0892 299.9525 13.23278978152723"
      },
      "geometry": {
        "type": "Point",
        "coordinates": [
          -88.68963157088237,
          -9.536530551752694
        ]
      }
    }
  ]
}